[{"OBJECT_NAME":"VSP RF A1","OBJECT_ID":"2024-043AP","EPOCH":"2026-03-07T00:44:15.345024","MEAN_MOTION":15.26179596,"ECCENTRICITY":0.00094313,"INCLINATION":97.5247,"RA_OF_ASC_NODE":201.5379,"ARG_OF_PERICENTER":234.6315,"MEAN_ANOMALY":125.4042,"EPHEMERIS_TYPE":0,"CLASSIFICATION_TYPE":"U","NORAD_CAT_ID":59135,"ELEMENT_SET_NO":999,"REV_AT_EPOCH":11140,"BSTAR":2.5198753e-5,"MEAN_MOTION_DOT":5.77e-6,"MEAN_MOTION_DDOT":0},{"OBJECT_NAME":"STARLINK-35407","OBJECT_ID":"2025-253R","EPOCH":"2026-03-09T11:15:16.781472","MEAN_MOTION":15.27588831,"ECCENTRICITY":0.00016378,"INCLINATION":42.9964,"RA_OF_ASC_NODE":213.5,"ARG_OF_PERICENTER":213.2147,"MEAN_ANOMALY":146.8603,"EPHEMERIS_TYPE":0,"CLASSIFICATION_TYPE":"U","NORAD_CAT_ID":66334,"ELEMENT_SET_NO":999,"REV_AT_EPOCH":2021,"BSTAR":0.00094235989,"MEAN_MOTION_DOT":0.00025768,"MEAN_MOTION_DDOT":0}]
